HTV-X1                  
1 66174U 25241A   26091.47442409  .00001232  00000+0  50371-4 0  9997
2 66174  51.6374 323.2502 0007223 261.0182  98.9982 15.32489270 24432
SZ-21 MODULE            
1 66515U 25246C   26091.28153335  .00041682  00000+0  33251-3 0  9997
2 66515  41.4741  64.1049 0002480 219.0022 141.0642 15.70350675 21628
SHENZHOU-22             
1 66645U 25272A   26091.36022109  .00024066  00000+0  27286-3 0  9991
2 66645  41.4670  70.0996 0003722  85.9086 274.2179 15.61804306281414
SOYUZ-MS 28             
1 66664U 25275A   26091.42366593  .00007873  00000+0  15247-3 0  9991
2 66664  51.6332 319.9685 0006221 259.3790 100.6498 15.48695066559947
DUPLEX                  
1 66906U 98067XS  26091.11529618  .00033711  00000+0  45047-3 0  9995
2 66906  51.6289 317.1598 0003067 216.2059 143.8726 15.57724655 18620
ISS OBJECT XT           
1 66907U 98067XT  26091.00549300  .00252342  00000+0  14153-2 0  9990
2 66907  51.6228 311.1343 0006663 226.0366 134.0085 15.77982760 18693
ISS OBJECT XU           
1 66908U 98067XU  26091.00116574  .00262522  00000+0  14515-2 0  9997
2 66908  51.6232 311.1009 0006920 225.5179 134.5256 15.78272322 18692
SILVERSAT               
1 66909U 98067XV  26091.00682860  .00386729  00000+0  15922-2 0  9993
2 66909  51.6192 309.6226 0008026 232.8926 127.1344 15.84315758 18718
ISS OBJECT XW           
1 66910U 98067XW  26090.88898362  .00206554  00000+0  12591-2 0  9992
2 66910  51.6213 311.8494 0006882 221.1915 138.8566 15.76237796 18679
ISS OBJECT XX           
1 66911U 98067XX  26090.87125946  .00604420  15627-3  17627-2 0  9997
2 66911  51.6169 308.6766 0009955 236.6927 123.3127 15.92173368 18702
ISS OBJECT XY           
1 66912U 98067XY  26090.98142135  .00127422  00000+0  10957-2 0  9995
2 66912  51.6257 314.0012 0004673 219.6211 140.4444 15.68405535 18647
KNACKSAT-2              
1 67683U 98067XZ  26090.99583651  .00046098  00000+0  70857-3 0  9999
2 67683  51.6314 320.8633 0010240 267.3943  92.5875 15.53721795  8254
